C/2017 D2 (Barros),e,31.2579,330.9511,334.5430,5305,0.0000026,0.99953043,0.0000,07/14.9041/2017,2000,g 11.0,4.0
# From MPC114598
C/2017 D3 (ATLAS),h,04/27.4211/2017,125.5866,186.6847,340.8585,1.002229,4.972097,2000,8.0,4.0
# From MPC110495
P/2017 D4 (PANSTARRS),e,10.5307,264.9378,212.2709,7.561620,0.0474004,0.62830956,78.2565,03/14.0/2021,2000,g 13.0,4.0
# From MPC104794
C/2017 D5 (PANSTARRS),e,131.0473,92.7100,287.7075,114.2746,0.0008068,0.98111088,0.0000,01/09.6324/2017,2000,g 16.0,4.0
# From MPC106346
C/2017 E1 (Borisov),h,04/10.6125/2017,14.5721,142.5658,152.7107,1.003133,0.902753,2000,14.0,4.0
# From MPC109144
C/2017 E2 (Tsuchinshan),e,79.0883,11.6256,89.3515,21.52569,0.0098689,0.89085091,17.4419,03/14.0/2021,2000,g 11.5,4.0
# From MPC115882
C/2017 E3 (PANSTARRS),h,06/07.8744/2017,70.6424,220.7537,334.5130,1.006515,5.938433,2000,6.5,4.0
# From MPC105239
C/2017 E4 (Lovejoy),h,04/23.6029/2017,88.0573,222.9730,87.0639,1.001497,0.490988,2000,17.0,4.0
# From MPC105239
C/2017 E5 (Lemmon),e,122.6695,206.3802,306.9457,399.3519,0.0001235,0.99552283,0.0000,06/10.8502/2016,2000,g 13.0,4.0
# From MPC111769
C/2017 F1 (Lemmon),h,11/29.9778/2017,146.4614,158.7879,64.7486,1.003245,4.496156,2000,10.5,4.0
# From MPC114598
C/2017 F2 (PANSTARRS),h,11/27.1603/2017,42.5271,38.6778,135.0227,1.003331,6.931603,2000,7.5,4.0
# From MPC104794
P/2017 G1 (PANSTARRS),e,4.7747,249.6297,224.5208,7.285945,0.0501159,0.65291321,89.2964,03/14.0/2021,2000,g 13.5,4.0
# From MPC108595
P/2017 G2 (PANSTARRS),e,47.9460,79.7874,105.5465,8.065360,0.0430297,0.64804058,59.0291,03/14.0/2021,2000,g 13.0,4.0
# From MPC109144
C/2017 G3 (PANSTARRS),e,159.0525,279.4753,73.1170,314.8650,0.0001764,0.99178004,0.0000,04/15.9242/2017,2000,g 14.0,4.0
# From MPC115882
C/2017 K1 (PANSTARRS),h,03/17.6606/2018,154.0158,225.6750,4.4171,1.002587,7.289642,2000,7.0,4.0
# From MPC119995
C/2017 K2 (PANSTARRS),h,12/19.7842/2022,87.5499,88.2491,236.1842,1.000524,1.797857,2000,1.5,4.0
# From MPC106346
P/2017 K3 (Gasparovic),e,4.2732,354.2819,253.4966,5.582733,0.0747195,0.58038116,103.3235,03/14.0/2021,2000,g 14.5,4.0
# From MPC114598
C/2017 K4 (ATLAS),e,16.6799,298.8707,15.2569,28.55469,0.0064593,0.90712127,7.4960,03/14.0/2021,2000,g 10.0,4.0
# From MPC119995
C/2017 K5 (PANSTARRS),h,03/26.5814/2020,82.2354,102.3721,171.9981,1.006303,7.680424,2000,5.0,4.0
# From MPC114599
C/2017 K6 (Jacques),e,57.2450,85.0227,303.7518,1080,0.0000278,0.99815045,0.0000,01/03.4643/2018,2000,g 11.0,4.0
# From MPC110083
C/2017 M3 (PANSTARRS),e,77.5640,7.0207,110.3292,166.8322,0.0004574,0.97208904,0.0000,04/28.1139/2017,2000,g 10.5,4.0
# From MPC118093
C/2017 M4 (ATLAS),h,01/17.9287/2019,105.6483,65.8830,167.5992,1.001270,3.253088,2000,6.0,4.0
# From MPC118841
C/2017 M5 (TOTAS),h,06/04.2760/2018,15.8760,216.2838,92.7716,1.005451,5.994927,2000,6.5,4.0
# From MPC114599
C/2017 O1 (ASASSN),e,39.9171,25.7517,20.8395,357.5105,0.0001458,0.99582144,0.0000,10/14.9690/2017,2000,g 11.0,4.0
# From MPC114599
P/2017 P1 (PANSTARRS),e,7.6956,221.3972,122.3355,7.897275,0.0444108,0.31083428,44.3399,03/14.0/2021,2000,g 10.0,4.0
# From MPC114599
C/2017 P2 (PANSTARRS),e,50.0519,165.4765,132.3867,2234,0.0000093,0.99889597,0.0000,12/06.6277/2017,2000,g 10.0,4.0
# From MPC114599
P/2017 R1 (PANSTARRS),e,2.5742,143.6168,178.6081,4.135057,0.1172146,0.19568639,168.0418,03/14.0/2021,2000,g 13.5,4.0
# From MPC108595
C/2017 S2 (PANSTARRS),e,12.6761,62.3900,305.9762,20.55575,0.0105756,0.82431788,13.6647,03/14.0/2021,2000,g 13.0,4.0
# From MPC114599
C/2017 S3 (PANSTARRS),h,08/16.0737/2018,99.1620,171.2301,255.8366,1.000057,0.207856,2000,11.0,4.0
# From MPC114599
P/2017 S5 (ATLAS),e,11.8516,252.3713,99.8722,3.167915,0.1748010,0.31424293,231.4332,03/14.0/2021,2000,g 14.0,4.0
# From MPC109591
C/2017 S6 (Catalina),h,02/26.3671/2018,152.8674,131.0394,134.8288,1.000660,1.544773,2000,12.5,4.0
# From MPC114599
C/2017 S7 (Lemmon),h,05/24.9408/2017,124.2283,262.7749,187.5674,1.000088,7.606962,2000,7.0,4.0
# From MPC114599
P/2017 S8 (PANSTARRS),e,29.8227,191.6094,254.7574,2.780122,0.2126221,0.39187990,242.8411,03/14.0/2021,2000,g 16.0,4.0
# From MPC107050
P/2017 S9 (PANSTARRS),e,14.1439,146.2228,237.7065,3.153634,0.1759897,0.30519999,234.0260,03/14.0/2021,2000,g 17.0,4.0
# From MPC114600
C/2017 T1 (Heinze),e,96.8467,102.3438,96.9482,19250,0.0000004,0.99996971,0.0000,02/21.1400/2018,2000,g 14.5,4.0
# From MPC119996
C/2017 T2 (PANSTARRS),e,57.2263,64.3773,93.0035,2986,0.0000060,0.99945900,0.0000,05/04.9412/2020,2000,g  5.0,4.0
# From MPC114600
C/2017 T3 (ATLAS),e,88.0827,230.0993,246.8309,1207,0.0000235,0.99931668,0.0000,07/18.8847/2018,2000,g 10.0,4.0
# From MPC115882
P/2017 TW13 (Lemmon),e,44.8500,322.2974,119.9872,7.143355,0.0516239,0.70946214,51.4761,03/14.0/2021,2000,g 15.0,2.0
# From MPC114600
C/2017 U2 (Fuls),e,95.3879,149.7077,147.8016,3223,0.0000054,0.99791912,0.0000,08/28.2185/2017,2000,g  9.0,4.0
# From MPC114600
P/2017 U3 (PANSTARRS),e,15.9167,165.1080,296.8578,4.929857,0.0900435,0.09888310,62.8250,03/14.0/2021,2000,g 11.0,4.0
# From MPC114600
C/2017 U4 (PANSTARRS),h,09/23.3703/2018,158.2155,245.9423,159.0298,1.002287,7.721037,2000,7.0,4.0
# From MPC114600
C/2017 U5 (PANSTARRS),e,18.9744,163.0851,262.0235,16.87522,0.0142177,0.74398422,16.7987,03/14.0/2021,2000,g 12.0,4.0
# From MPC118841
C/2017 U7,h,09/14.0800/2019,142.5905,276.2446,326.3066,1.000630,6.422837,2000,8.3,2.0
# From MPC114600
C/2017 W2 (Leonard),e,98.1989,312.8423,169.0297,13.65848,0.0195254,0.71066038,23.9923,03/14.0/2021,2000,g 11.0,4.0
# From MPC114601
P/2017 W3 (Gibbs),e,18.1682,210.2903,327.8035,7.842840,0.0448739,0.50749988,49.7642,03/14.0/2021,2000,g 10.5,4.0
# From MPC115883
C/2017 X1 (PANSTARRS),e,31.3049,251.1302,283.2849,31.31808,0.0056236,0.85090527,5.6393,03/14.0/2021,2000,g 10.0,4.0
# From MPC117069
C/2017 Y1 (PANSTARRS),e,55.2667,307.5308,134.3035,1802,0.0000129,0.99794079,0.0000,08/31.1668/2017,2000,g 11.5,4.0
# From MPC118841
C/2017 Y2 (PANSTARRS),h,11/04.7147/2020,128.4113,65.9943,147.8874,1.000849,4.632187,2000,15.0,4.0
# From MPC111770
P/2017 Y3 (Leonard),e,27.5598,153.8464,67.6039,9.845822,0.0319026,0.87008669,35.9668,03/14.0/2021,2000,g 16.5,4.0
# From MPC114601
C/2018 A1 (PANSTARRS),e,53.6092,336.6539,96.2595,25.09944,0.0078381,0.90381468,9.7233,03/14.0/2021,2000,g 12.5,4.0
# From MPC119996
C/2018 A3 (ATLAS),e,139.5419,194.2939,86.3856,458.4224,0.0001004,0.99285490,0.0000,01/12.5425/2019,2000,g  8.5,4.0
# From MPC114601
C/2018 A4 (PANSTARRS),e,3.1484,97.6276,356.0316,12.20056,0.0231278,0.80334572,23.8335,03/14.0/2021,2000,g 14.0,4.0
# From MPC109147
P/2018 A5 (PANSTARRS),e,23.5816,87.8223,359.5614,5.634835,0.0736855,0.52230566,93.4319,03/14.0/2021,2000,g 15.0,4.0
# From MPC119996
C/2018 A6 (Gibbs),e,76.9981,340.3757,264.5534,15.30240,0.0164651,0.80270289,10.0250,03/14.0/2021,2000,g  9.0,4.0
# From MPC118841
C/2018 B1 (Lemmon),h,03/29.3953/2018,162.4200,133.1909,68.3117,1.000770,5.116630,2000,9.0,4.0
# From MPC114601
P/2018 C1 (Lemmon-Read),e,5.1205,270.3792,235.6910,5.654312,0.0733051,0.53304171,81.5302,03/14.0/2021,2000,g 13.5,4.0
# From MPC114601
C/2018 C2 (Lemmon),h,06/01.6412/2018,34.4597,91.1503,134.1128,1.000715,1.958480,2000,13.0,4.0
# From MPEC 2020-AA5
C/2018 DO4 (Lemmon),e,160.4727,251.1766,176.0572,25.74380,0.0075456,0.90644320,4.3290,03/14.0/2021,2000,g 11.0,4.0
# From MPC114602
C/2018 E1 (ATLAS),e,72.5152,146.8653,299.3887,53.93535,0.0024882,0.94991233,2.6417,03/14.0/2021,2000,g 10.5,4.0
# From MPC114602
C/2018 E2 (Barros),e,97.7039,67.1936,277.4654,4038,0.0000038,0.99902915,0.0000,12/24.0238/2017,2000,g 10.5,4.0
# From MPC114602
C/2018 EN4 (NEOWISE),e,81.6578,136.1419,35.0087,18.20191,0.0126920,0.92029229,12.8344,03/14.0/2021,2000,g 15.0,4.0
# From MPC114602
C/2018 EF9 (Lemmon),e,84.6361,172.5640,72.6200,543.9400,0.0000777,0.99713604,0.0000,05/22.7362/2018,2000,g 18.0,2.0
# From MPC115883
C/2018 F1 (Grauer),e,46.0771,177.2759,71.6329,281.6681,0.0002085,0.98936903,0.0000,12/13.7094/2018,2000,g 11.5,4.0
# From MPC110084
C/2018 F3 (Johnson),p,08/15.2314/2017,105.5348,293.0113,2.483172,173.0311,2000,13.0,4.0
# From MPC119996
C/2018 F4 (PANSTARRS),h,12/04.1364/2019,78.0922,26.5139,263.2304,1.001270,3.440413,2000,11.9,2.0
# From MPC114602
P/2018 H2 (PANSTARRS),e,7.3883,68.3918,119.9676,4.392545,0.1070606,0.54008635,122.7475,03/14.0/2021,2000,g 16.6,2.0
# From MPC114602
C/2018 K1 (Weiland),e,164.1957,260.0474,325.0908,29.98614,0.0060024,0.93723037,6.4356,03/14.0/2021,2000,g 14.9,4.0
# From MPC118094
C/2018 KJ3 (Lemmon),e,136.7078,91.6028,217.6687,848.2084,0.0000399,0.99572106,0.0000,09/09.7270/2019,2000,g 12.2,2.0
# From MPC114602
P/2018 L1 (PANSTARRS),e,10.5920,268.6314,17.9885,3.650936,0.1412856,0.48282785,120.4303,03/14.0/2021,2000,g 15.0,4.0
# From MPC118841
C/2018 L2 (ATLAS),e,67.3813,243.0234,56.2765,260.0835,0.0002350,0.99341410,0.0000,12/02.6882/2018,2000,g 10.0,4.0
# From MPC114603
P/2018 L4 (PANSTARRS),e,26.6250,145.1544,140.5698,4.940924,0.0897412,0.66012590,85.8048,03/14.0/2021,2000,g 17.5,4.0
# From MPC119996
P/2018 L5 (Leonard),e,2.2082,219.1205,93.8152,3.627857,0.1426359,0.36477337,148.8898,03/14.0/2021,2000,g 14.5,4.0
# From MPC117070
C/2018 M1 (Catalina),e,37.2937,339.4146,14.1669,21.36395,0.0099812,0.93903478,9.7582,03/14.0/2021,2000,g 15.5,4.0
# From MPC112393
C/2018 N1 (NEOWISE),e,159.4437,292.4474,354.6329,353.0971,0.0001485,0.99628970,0.0000,08/01.9557/2018,2000,g 15.5,4.0
# From MPC119996
C/2018 N2 (ASASSN),h,11/10.9738/2019,77.5292,25.2422,24.4053,1.000118,3.124827,2000,6.0,4.0
# From MPC114603
C/2018 O1 (ATLAS),e,154.0379,87.6509,162.5921,27.92316,0.0066797,0.94411204,6.1814,03/14.0/2021,2000,g 17.0,4.0
# From MPC114603
P/2018 P3 (PANSTARRS),e,8.9092,59.1815,305.8773,3.006127,0.1891007,0.41653081,167.5718,03/14.0/2021,2000,g 14.5,4.0
# From MPC114603
P/2018 P4 (PANSTARRS),e,23.1074,353.0729,8.2287,6.672429,0.0571845,0.45045137,49.0064,03/14.0/2021,2000,g 12.0,4.0
# From MPC118094
C/2018 P5 (PANSTARRS),e,7.2525,216.2397,131.7372,12.80137,0.0215189,0.64240367,16.0506,03/14.0/2021,2000,g 11.0,4.0
# From MPC118841
